[{"OBJECT_NAME":"STARLINK-34783","OBJECT_ID":"2025-253U","EPOCH":"2026-03-09T10:55:08.706432","MEAN_MOTION":15.27570908,"ECCENTRICITY":0.00013251,"INCLINATION":43.0028,"RA_OF_ASC_NODE":214.2599,"ARG_OF_PERICENTER":266.6833,"MEAN_ANOMALY":93.3867,"EPHEMERIS_TYPE":0,"CLASSIFICATION_TYPE":"U","NORAD_CAT_ID":66337,"ELEMENT_SET_NO":999,"REV_AT_EPOCH":2020,"BSTAR":0.00095156447,"MEAN_MOTION_DOT":0.00026008,"MEAN_MOTION_DDOT":0},{"OBJECT_NAME":"FENGYUN 1C DEB","OBJECT_ID":"1999-025ETT","EPOCH":"2026-03-07T08:30:03.670560","MEAN_MOTION":15.28888299,"ECCENTRICITY":0.00158464,"INCLINATION":99.1103,"RA_OF_ASC_NODE":112.0072,"ARG_OF_PERICENTER":201.0032,"MEAN_ANOMALY":159.0553,"EPHEMERIS_TYPE":0,"CLASSIFICATION_TYPE":"U","NORAD_CAT_ID":38726,"ELEMENT_SET_NO":999,"REV_AT_EPOCH":71135,"BSTAR":0.013792546,"MEAN_MOTION_DOT":0.00409659,"MEAN_MOTION_DDOT":0}]
